Search_name,name,lat,lng,address
盒马鲜生(龙岗锦荟店),盒马鲜生(龙岗锦荟店),22.639077,114.184262,锦荟PARK一层
美团专送,美团专送,22.22623,113.521538,珠海市香洲区北山路与北山正街南交叉路口往西约100米(南安亭东北侧约100米)
美团专送,美团专送,22.245604,113.531453,广东省珠海市香洲区粤海西路102号北80米
美团专送,美团专送,22.175495,113.289528,珠海市斗门区新青三路与埔青街交叉路口往北约100米(新堂村瑞生园东南侧)
美团专送,美团专送,22.274755,113.540489,珠海市香洲区人民西路与红宝路交叉路口往西约100米(宝地康泰花园-A区)
美团专送,美团专送,22.360018,113.599463,珠海市香洲区明园路(惠景文园东北侧约50米)
美团专送,美团专送,22.281939,113.518077,珠海市香洲区警安街与旅游路交叉路口往东南约100米(棕榈四季)
美团专送,美团专送,22.281296,113.567301,夏美路一巷35号6栋105
美团专送,美团专送,22.103873,113.186472,珠海市金湾区华丰一巷与美平西路交叉路口西北侧(爱家心座)
美团专送,美团专送,22.265244,113.53136,广东省珠海市香洲区翠前北路63号附近
美团专送(水仙花园店),美团专送(水仙花园店),22.232292,113.511497,南屏环屏路二街与环屏路交叉口东北100米
美团专送,美团专送,23.285623,116.325933,汕头市潮南区中南路(美南公园西侧)
美团专送,美团专送,23.443515,116.759008,汕头市龙湖区汕汾路与外砂迎宾路交叉路口往东北约100米(蓬中华侨学校西北侧)
美团专送,美团专送,23.50314,116.805354,广东省汕头市澄海区大海门三片六路
美团专送,美团专送,23.414775,116.65958,蓬城南街16号
美团专送,美团专送,23.374264,116.709751,品牌一条街41-43号附近
美团外卖美团专送,美团外卖美团专送,23.034956,114.357984,广东省惠州市惠城区和畅五路西9号
美团外卖美团专送,美团外卖美团专送,22.742048,114.483074,惠州市惠阳区龙山八路(新园华府)
美团外卖美团专送,美团外卖美团专送,23.117124,114.431321,菊花一路3号金宝兴业家园北门
美团外卖美团专送,美团外卖美团专送,23.143009,114.13526,惠州市博罗县龙溪商业街与大塘路交叉路口往东北约100米(万润城购物中心西北侧)
美团外卖美团专送,美团外卖美团专送,22.787939,114.456577,惠州市惠阳区上湖西街与上湖西街东巷交叉路口往西约100米(惠阳区金辉中英文幼儿园西北侧)
美团专送,美团专送,23.004243,114.338458,惠州市惠城区古湖路与华盛东街交叉路口往南约50米
美团专送,美团专送,22.787482,114.484159,淡水镇爱民东路三街二号
美团专送,美团专送,22.721576,114.41645,惠州市惠阳区西南大道(潮惠装饰城南侧约50米)
美团专送,美团专送,23.066146,114.427723,惠州市惠城区三环南路与南岸路交叉路口西北侧(苏屋墩)
美团专送,美团专送,23.081247,114.403051,广东省惠州市惠城区花园水中路11-4号附近
美团专送,美团专送,23.121342,114.439819,惠州市惠城区下寮新中路与惠民大道交叉路口往东南约100米
美团专送,美团专送,23.079656,114.410051,广东省惠州市惠城区花园水中路龙丰科肚四号小区西门
美团专送,美团专送,23.122125,114.433507,惠州市惠城区新沥路(天泽名居东南侧)
美团专送,美团专送,23.004243,114.338458,惠州市惠城区古湖路与华盛东街交叉路口往南约50米
美团专送,美团专送,22.787482,114.484159,淡水镇爱民东路三街二号
美团专送,美团专送,22.721576,114.41645,惠州市惠阳区西南大道(潮惠装饰城南侧约50米)
美团专送,美团专送,23.066146,114.427723,惠州市惠城区三环南路与南岸路交叉路口西北侧(苏屋墩)
美团专送,美团专送,23.081247,114.403051,广东省惠州市惠城区花园水中路11-4号附近
美团专送,美团专送,23.121342,114.439819,惠州市惠城区下寮新中路与惠民大道交叉路口往东南约100米
美团专送,美团专送,23.079656,114.410051,广东省惠州市惠城区花园水中路龙丰科肚四号小区西门
美团专送,美团专送,23.122125,114.433507,惠州市惠城区新沥路(天泽名居东南侧)
叮咚买菜,叮咚买菜,22.842388,114.015058,广东省东莞市黄江镇清龙路17号
叮咚买菜,叮咚买菜,22.842388,114.015058,广东省东莞市黄江镇清龙路17号
美团专送,美团专送,22.674559,113.235579,广东省中山市拱桥路41号附近
美团专送,美团专送,22.531953,113.343619,广东省中山市青云路49号北60米
美团专送,美团专送,22.718456,113.32075,广东省中山市南头大道东69附近
美团专送,美团专送,22.508619,113.321563,奕豪路与隆都南路交叉口西北50米
美团专送,美团专送,22.619922,113.255402,中山市顷六路与联宜大街交叉路口往东南约50米(泰丰购物中心西侧约100米)
美团专送,美团专送,22.586225,113.226199,中山市珠三角环线高速(远洋启宸南侧约50米)
美团专送,美团专送,22.535862,113.389779,中山市莲塘路与莲员东路交叉路口往东约100米(中山市厚兴郑伟权学校西北侧)
美团专送,美团专送,22.274303,113.478753,广东省中山市嘉惠路三巷21号附近
美团专送,美团专送,22.619349,113.188735,广东省中山市永兴路1号附近
美团配送,美团配送,22.566314,113.351947,广东省中山市金港路19东南80米
美团专送,美团专送,22.674559,113.235579,广东省中山市拱桥路41号附近
美团专送,美团专送,22.531953,113.343619,广东省中山市青云路49号北60米
美团专送,美团专送,22.718456,113.32075,广东省中山市南头大道东69附近
美团专送,美团专送,22.508619,113.321563,奕豪路与隆都南路交叉口西北50米
美团专送,美团专送,22.619922,113.255402,中山市顷六路与联宜大街交叉路口往东南约50米(泰丰购物中心西侧约100米)
美团专送,美团专送,22.586225,113.226199,中山市珠三角环线高速(远洋启宸南侧约50米)
美团专送,美团专送,22.535862,113.389779,中山市莲塘路与莲员东路交叉路口往东约100米(中山市厚兴郑伟权学校西北侧)
美团专送,美团专送,22.274303,113.478753,广东省中山市嘉惠路三巷21号附近
美团专送,美团专送,22.619349,113.188735,广东省中山市永兴路1号附近
美团专送,美团专送,22.674559,113.235579,广东省中山市拱桥路41号附近
美团专送,美团专送,22.531953,113.343619,广东省中山市青云路49号北60米
美团专送,美团专送,22.718456,113.32075,广东省中山市南头大道东69附近
美团专送,美团专送,22.508619,113.321563,奕豪路与隆都南路交叉口西北50米
美团专送,美团专送,22.619922,113.255402,中山市顷六路与联宜大街交叉路口往东南约50米(泰丰购物中心西侧约100米)
美团专送,美团专送,22.586225,113.226199,中山市珠三角环线高速(远洋启宸南侧约50米)
美团专送,美团专送,22.535862,113.389779,中山市莲塘路与莲员东路交叉路口往东约100米(中山市厚兴郑伟权学校西北侧)
美团专送,美团专送,22.274303,113.478753,广东省中山市嘉惠路三巷21号附近
美团专送,美团专送,22.619349,113.188735,广东省中山市永兴路1号附近
美团专送,美团专送,22.674559,113.235579,广东省中山市拱桥路41号附近
美团专送,美团专送,22.531953,113.343619,广东省中山市青云路49号北60米
美团专送,美团专送,22.718456,113.32075,广东省中山市南头大道东69附近
美团专送,美团专送,22.508619,113.321563,奕豪路与隆都南路交叉口西北50米
美团专送,美团专送,22.619922,113.255402,中山市顷六路与联宜大街交叉路口往东南约50米(泰丰购物中心西侧约100米)
美团专送,美团专送,22.586225,113.226199,中山市珠三角环线高速(远洋启宸南侧约50米)
美团专送,美团专送,22.535862,113.389779,中山市莲塘路与莲员东路交叉路口往东约100米(中山市厚兴郑伟权学校西北侧)
美团专送,美团专送,22.274303,113.478753,广东省中山市嘉惠路三巷21号附近
美团专送,美团专送,22.619349,113.188735,广东省中山市永兴路1号附近
美团配送,美团配送,22.566314,113.351947,广东省中山市金港路19东南80米
美团专送,美团专送,22.674559,113.235579,广东省中山市拱桥路41号附近
美团专送,美团专送,22.531953,113.343619,广东省中山市青云路49号北60米
美团专送,美团专送,22.718456,113.32075,广东省中山市南头大道东69附近
美团专送,美团专送,22.508619,113.321563,奕豪路与隆都南路交叉口西北50米
美团专送,美团专送,22.619922,113.255402,中山市顷六路与联宜大街交叉路口往东南约50米(泰丰购物中心西侧约100米)
美团专送,美团专送,22.586225,113.226199,中山市珠三角环线高速(远洋启宸南侧约50米)
美团专送,美团专送,22.535862,113.389779,中山市莲塘路与莲员东路交叉路口往东约100米(中山市厚兴郑伟权学校西北侧)
美团专送,美团专送,22.274303,113.478753,广东省中山市嘉惠路三巷21号附近
美团专送,美团专送,22.619349,113.188735,广东省中山市永兴路1号附近
美团专送,美团专送,22.674559,113.235579,广东省中山市拱桥路41号附近
美团专送,美团专送,22.531953,113.343619,广东省中山市青云路49号北60米
美团专送,美团专送,22.718456,113.32075,广东省中山市南头大道东69附近
美团专送,美团专送,22.508619,113.321563,奕豪路与隆都南路交叉口西北50米
美团专送,美团专送,22.619922,113.255402,中山市顷六路与联宜大街交叉路口往东南约50米(泰丰购物中心西侧约100米)
美团专送,美团专送,22.586225,113.226199,中山市珠三角环线高速(远洋启宸南侧约50米)
美团专送,美团专送,22.535862,113.389779,中山市莲塘路与莲员东路交叉路口往东约100米(中山市厚兴郑伟权学校西北侧)
美团专送,美团专送,22.274303,113.478753,广东省中山市嘉惠路三巷21号附近
美团专送,美团专送,22.619349,113.188735,广东省中山市永兴路1号附近
美团专送,美团专送,22.674559,113.235579,广东省中山市拱桥路41号附近
美团专送,美团专送,22.531953,113.343619,广东省中山市青云路49号北60米
美团专送,美团专送,22.718456,113.32075,广东省中山市南头大道东69附近
美团专送,美团专送,22.508619,113.321563,奕豪路与隆都南路交叉口西北50米
美团专送,美团专送,22.619922,113.255402,中山市顷六路与联宜大街交叉路口往东南约50米(泰丰购物中心西侧约100米)
美团专送,美团专送,22.586225,113.226199,中山市珠三角环线高速(远洋启宸南侧约50米)
美团专送,美团专送,22.535862,113.389779,中山市莲塘路与莲员东路交叉路口往东约100米(中山市厚兴郑伟权学校西北侧)
美团专送,美团专送,22.274303,113.478753,广东省中山市嘉惠路三巷21号附近
美团专送,美团专送,22.619349,113.188735,广东省中山市永兴路1号附近
美团专送,美团专送,22.674559,113.235579,广东省中山市拱桥路41号附近
美团专送,美团专送,22.531953,113.343619,广东省中山市青云路49号北60米
美团专送,美团专送,22.718456,113.32075,广东省中山市南头大道东69附近
美团专送,美团专送,22.508619,113.321563,奕豪路与隆都南路交叉口西北50米
美团专送,美团专送,22.619922,113.255402,中山市顷六路与联宜大街交叉路口往东南约50米(泰丰购物中心西侧约100米)
美团专送,美团专送,22.586225,113.226199,中山市珠三角环线高速(远洋启宸南侧约50米)
美团专送,美团专送,22.535862,113.389779,中山市莲塘路与莲员东路交叉路口往东约100米(中山市厚兴郑伟权学校西北侧)
美团专送,美团专送,22.274303,113.478753,广东省中山市嘉惠路三巷21号附近
美团专送,美团专送,22.619349,113.188735,广东省中山市永兴路1号附近
美团专送,美团专送,22.674559,113.235579,广东省中山市拱桥路41号附近
美团专送,美团专送,22.531953,113.343619,广东省中山市青云路49号北60米
美团专送,美团专送,22.718456,113.32075,广东省中山市南头大道东69附近
美团专送,美团专送,22.508619,113.321563,奕豪路与隆都南路交叉口西北50米
美团专送,美团专送,22.619922,113.255402,中山市顷六路与联宜大街交叉路口往东南约50米(泰丰购物中心西侧约100米)
美团专送,美团专送,22.586225,113.226199,中山市珠三角环线高速(远洋启宸南侧约50米)
美团专送,美团专送,22.535862,113.389779,中山市莲塘路与莲员东路交叉路口往东约100米(中山市厚兴郑伟权学校西北侧)
美团专送,美团专送,22.274303,113.478753,广东省中山市嘉惠路三巷21号附近
美团专送,美团专送,22.619349,113.188735,广东省中山市永兴路1号附近
美团专送,美团专送,22.674559,113.235579,广东省中山市拱桥路41号附近
美团专送,美团专送,22.531953,113.343619,广东省中山市青云路49号北60米
美团专送,美团专送,22.718456,113.32075,广东省中山市南头大道东69附近
美团专送,美团专送,22.508619,113.321563,奕豪路与隆都南路交叉口西北50米
美团专送,美团专送,22.619922,113.255402,中山市顷六路与联宜大街交叉路口往东南约50米(泰丰购物中心西侧约100米)
美团专送,美团专送,22.586225,113.226199,中山市珠三角环线高速(远洋启宸南侧约50米)
美团专送,美团专送,22.535862,113.389779,中山市莲塘路与莲员东路交叉路口往东约100米(中山市厚兴郑伟权学校西北侧)
美团专送,美团专送,22.274303,113.478753,广东省中山市嘉惠路三巷21号附近
美团专送,美团专送,22.619349,113.188735,广东省中山市永兴路1号附近
美团专送,美团专送,22.674559,113.235579,广东省中山市拱桥路41号附近
美团专送,美团专送,22.531953,113.343619,广东省中山市青云路49号北60米
美团专送,美团专送,22.718456,113.32075,广东省中山市南头大道东69附近
美团专送,美团专送,22.508619,113.321563,奕豪路与隆都南路交叉口西北50米
美团专送,美团专送,22.619922,113.255402,中山市顷六路与联宜大街交叉路口往东南约50米(泰丰购物中心西侧约100米)
美团专送,美团专送,22.586225,113.226199,中山市珠三角环线高速(远洋启宸南侧约50米)
美团专送,美团专送,22.535862,113.389779,中山市莲塘路与莲员东路交叉路口往东约100米(中山市厚兴郑伟权学校西北侧)
美团专送,美团专送,22.274303,113.478753,广东省中山市嘉惠路三巷21号附近
美团专送,美团专送,22.619349,113.188735,广东省中山市永兴路1号附近
美团专送,美团专送,22.674559,113.235579,广东省中山市拱桥路41号附近
美团专送,美团专送,22.531953,113.343619,广东省中山市青云路49号北60米
美团专送,美团专送,22.718456,113.32075,广东省中山市南头大道东69附近
美团专送,美团专送,22.508619,113.321563,奕豪路与隆都南路交叉口西北50米
美团专送,美团专送,22.619922,113.255402,中山市顷六路与联宜大街交叉路口往东南约50米(泰丰购物中心西侧约100米)
美团专送,美团专送,22.586225,113.226199,中山市珠三角环线高速(远洋启宸南侧约50米)
美团专送,美团专送,22.535862,113.389779,中山市莲塘路与莲员东路交叉路口往东约100米(中山市厚兴郑伟权学校西北侧)
美团专送,美团专送,22.274303,113.478753,广东省中山市嘉惠路三巷21号附近
美团专送,美团专送,22.619349,113.188735,广东省中山市永兴路1号附近
美团专送,美团专送,22.674559,113.235579,广东省中山市拱桥路41号附近
美团专送,美团专送,22.531953,113.343619,广东省中山市青云路49号北60米
美团专送,美团专送,22.718456,113.32075,广东省中山市南头大道东69附近
美团专送,美团专送,22.508619,113.321563,奕豪路与隆都南路交叉口西北50米
美团专送,美团专送,22.619922,113.255402,中山市顷六路与联宜大街交叉路口往东南约50米(泰丰购物中心西侧约100米)
美团专送,美团专送,22.586225,113.226199,中山市珠三角环线高速(远洋启宸南侧约50米)
美团专送,美团专送,22.535862,113.389779,中山市莲塘路与莲员东路交叉路口往东约100米(中山市厚兴郑伟权学校西北侧)
美团专送,美团专送,22.274303,113.478753,广东省中山市嘉惠路三巷21号附近
美团专送,美团专送,22.619349,113.188735,广东省中山市永兴路1号附近
美团专送,美团专送,22.674559,113.235579,广东省中山市拱桥路41号附近
美团专送,美团专送,22.531953,113.343619,广东省中山市青云路49号北60米
美团专送,美团专送,22.718456,113.32075,广东省中山市南头大道东69附近
美团专送,美团专送,22.508619,113.321563,奕豪路与隆都南路交叉口西北50米
美团专送,美团专送,22.619922,113.255402,中山市顷六路与联宜大街交叉路口往东南约50米(泰丰购物中心西侧约100米)
美团专送,美团专送,22.586225,113.226199,中山市珠三角环线高速(远洋启宸南侧约50米)
美团专送,美团专送,22.535862,113.389779,中山市莲塘路与莲员东路交叉路口往东约100米(中山市厚兴郑伟权学校西北侧)
美团专送,美团专送,22.274303,113.478753,广东省中山市嘉惠路三巷21号附近
美团专送,美团专送,22.619349,113.188735,广东省中山市永兴路1号附近
美团专送,美团专送,22.674559,113.235579,广东省中山市拱桥路41号附近
美团专送,美团专送,22.531953,113.343619,广东省中山市青云路49号北60米
美团专送,美团专送,22.718456,113.32075,广东省中山市南头大道东69附近
美团专送,美团专送,22.508619,113.321563,奕豪路与隆都南路交叉口西北50米
美团专送,美团专送,22.619922,113.255402,中山市顷六路与联宜大街交叉路口往东南约50米(泰丰购物中心西侧约100米)
美团专送,美团专送,22.586225,113.226199,中山市珠三角环线高速(远洋启宸南侧约50米)
美团专送,美团专送,22.535862,113.389779,中山市莲塘路与莲员东路交叉路口往东约100米(中山市厚兴郑伟权学校西北侧)
美团专送,美团专送,22.274303,113.478753,广东省中山市嘉惠路三巷21号附近
美团专送,美团专送,22.619349,113.188735,广东省中山市永兴路1号附近
美团专送,美团专送,22.674559,113.235579,广东省中山市拱桥路41号附近
美团专送,美团专送,22.531953,113.343619,广东省中山市青云路49号北60米
美团专送,美团专送,22.718456,113.32075,广东省中山市南头大道东69附近
美团专送,美团专送,22.508619,113.321563,奕豪路与隆都南路交叉口西北50米
美团专送,美团专送,22.619922,113.255402,中山市顷六路与联宜大街交叉路口往东南约50米(泰丰购物中心西侧约100米)
美团专送,美团专送,22.586225,113.226199,中山市珠三角环线高速(远洋启宸南侧约50米)
美团专送,美团专送,22.535862,113.389779,中山市莲塘路与莲员东路交叉路口往东约100米(中山市厚兴郑伟权学校西北侧)
美团专送,美团专送,22.274303,113.478753,广东省中山市嘉惠路三巷21号附近
美团专送,美团专送,22.619349,113.188735,广东省中山市永兴路1号附近
美团专送,美团专送,22.674559,113.235579,广东省中山市拱桥路41号附近
美团专送,美团专送,22.531953,113.343619,广东省中山市青云路49号北60米
美团专送,美团专送,22.718456,113.32075,广东省中山市南头大道东69附近
美团专送,美团专送,22.508619,113.321563,奕豪路与隆都南路交叉口西北50米
美团专送,美团专送,22.619922,113.255402,中山市顷六路与联宜大街交叉路口往东南约50米(泰丰购物中心西侧约100米)
美团专送,美团专送,22.586225,113.226199,中山市珠三角环线高速(远洋启宸南侧约50米)
美团专送,美团专送,22.535862,113.389779,中山市莲塘路与莲员东路交叉路口往东约100米(中山市厚兴郑伟权学校西北侧)
美团专送,美团专送,22.274303,113.478753,广东省中山市嘉惠路三巷21号附近
美团专送,美团专送,22.619349,113.188735,广东省中山市永兴路1号附近
美团专送,美团专送,22.674559,113.235579,广东省中山市拱桥路41号附近
美团专送,美团专送,22.531953,113.343619,广东省中山市青云路49号北60米
美团专送,美团专送,22.718456,113.32075,广东省中山市南头大道东69附近
美团专送,美团专送,22.508619,113.321563,奕豪路与隆都南路交叉口西北50米
美团专送,美团专送,22.619922,113.255402,中山市顷六路与联宜大街交叉路口往东南约50米(泰丰购物中心西侧约100米)
美团专送,美团专送,22.586225,113.226199,中山市珠三角环线高速(远洋启宸南侧约50米)
美团专送,美团专送,22.535862,113.389779,中山市莲塘路与莲员东路交叉路口往东约100米(中山市厚兴郑伟权学校西北侧)
美团专送,美团专送,22.274303,113.478753,广东省中山市嘉惠路三巷21号附近
美团专送,美团专送,22.619349,113.188735,广东省中山市永兴路1号附近
美团专送,美团专送,22.674559,113.235579,广东省中山市拱桥路41号附近
美团专送,美团专送,22.531953,113.343619,广东省中山市青云路49号北60米
美团专送,美团专送,22.718456,113.32075,广东省中山市南头大道东69附近
美团专送,美团专送,22.508619,113.321563,奕豪路与隆都南路交叉口西北50米
美团专送,美团专送,22.619922,113.255402,中山市顷六路与联宜大街交叉路口往东南约50米(泰丰购物中心西侧约100米)
美团专送,美团专送,22.586225,113.226199,中山市珠三角环线高速(远洋启宸南侧约50米)
美团专送,美团专送,22.535862,113.389779,中山市莲塘路与莲员东路交叉路口往东约100米(中山市厚兴郑伟权学校西北侧)
美团专送,美团专送,22.274303,113.478753,广东省中山市嘉惠路三巷21号附近
美团专送,美团专送,22.619349,113.188735,广东省中山市永兴路1号附近
美团专送,美团专送,22.674559,113.235579,广东省中山市拱桥路41号附近
美团专送,美团专送,22.531953,113.343619,广东省中山市青云路49号北60米
美团专送,美团专送,22.718456,113.32075,广东省中山市南头大道东69附近
美团专送,美团专送,22.508619,113.321563,奕豪路与隆都南路交叉口西北50米
美团专送,美团专送,22.619922,113.255402,中山市顷六路与联宜大街交叉路口往东南约50米(泰丰购物中心西侧约100米)
美团专送,美团专送,22.586225,113.226199,中山市珠三角环线高速(远洋启宸南侧约50米)
美团专送,美团专送,22.535862,113.389779,中山市莲塘路与莲员东路交叉路口往东约100米(中山市厚兴郑伟权学校西北侧)
美团专送,美团专送,22.274303,113.478753,广东省中山市嘉惠路三巷21号附近
美团专送,美团专送,22.619349,113.188735,广东省中山市永兴路1号附近
美团专送,美团专送,22.674559,113.235579,广东省中山市拱桥路41号附近
美团专送,美团专送,22.531953,113.343619,广东省中山市青云路49号北60米
美团专送,美团专送,22.718456,113.32075,广东省中山市南头大道东69附近
美团专送,美团专送,22.508619,113.321563,奕豪路与隆都南路交叉口西北50米
美团专送,美团专送,22.619922,113.255402,中山市顷六路与联宜大街交叉路口往东南约50米(泰丰购物中心西侧约100米)
美团专送,美团专送,22.586225,113.226199,中山市珠三角环线高速(远洋启宸南侧约50米)
美团专送,美团专送,22.535862,113.389779,中山市莲塘路与莲员东路交叉路口往东约100米(中山市厚兴郑伟权学校西北侧)
美团专送,美团专送,22.274303,113.478753,广东省中山市嘉惠路三巷21号附近
美团专送,美团专送,22.619349,113.188735,广东省中山市永兴路1号附近
美团专送,美团专送,22.674559,113.235579,广东省中山市拱桥路41号附近
美团专送,美团专送,22.531953,113.343619,广东省中山市青云路49号北60米
美团专送,美团专送,22.718456,113.32075,广东省中山市南头大道东69附近
美团专送,美团专送,22.508619,113.321563,奕豪路与隆都南路交叉口西北50米
美团专送,美团专送,22.619922,113.255402,中山市顷六路与联宜大街交叉路口往东南约50米(泰丰购物中心西侧约100米)
美团专送,美团专送,22.586225,113.226199,中山市珠三角环线高速(远洋启宸南侧约50米)
美团专送,美团专送,22.535862,113.389779,中山市莲塘路与莲员东路交叉路口往东约100米(中山市厚兴郑伟权学校西北侧)
美团专送,美团专送,22.274303,113.478753,广东省中山市嘉惠路三巷21号附近
美团专送,美团专送,22.619349,113.188735,广东省中山市永兴路1号附近
美团专送,美团专送,22.674559,113.235579,广东省中山市拱桥路41号附近
美团专送,美团专送,22.531953,113.343619,广东省中山市青云路49号北60米
美团专送,美团专送,22.718456,113.32075,广东省中山市南头大道东69附近
美团专送,美团专送,22.508619,113.321563,奕豪路与隆都南路交叉口西北50米
美团专送,美团专送,22.619922,113.255402,中山市顷六路与联宜大街交叉路口往东南约50米(泰丰购物中心西侧约100米)
美团专送,美团专送,22.586225,113.226199,中山市珠三角环线高速(远洋启宸南侧约50米)
美团专送,美团专送,22.535862,113.389779,中山市莲塘路与莲员东路交叉路口往东约100米(中山市厚兴郑伟权学校西北侧)
美团专送,美团专送,22.274303,113.478753,广东省中山市嘉惠路三巷21号附近
美团专送,美团专送,22.619349,113.188735,广东省中山市永兴路1号附近
美团专送,美团专送,22.674559,113.235579,广东省中山市拱桥路41号附近
美团专送,美团专送,22.531953,113.343619,广东省中山市青云路49号北60米
美团专送,美团专送,22.718456,113.32075,广东省中山市南头大道东69附近
美团专送,美团专送,22.508619,113.321563,奕豪路与隆都南路交叉口西北50米
美团专送,美团专送,22.619922,113.255402,中山市顷六路与联宜大街交叉路口往东南约50米(泰丰购物中心西侧约100米)
美团专送,美团专送,22.586225,113.226199,中山市珠三角环线高速(远洋启宸南侧约50米)
美团专送,美团专送,22.535862,113.389779,中山市莲塘路与莲员东路交叉路口往东约100米(中山市厚兴郑伟权学校西北侧)
美团专送,美团专送,22.274303,113.478753,广东省中山市嘉惠路三巷21号附近
美团专送,美团专送,22.619349,113.188735,广东省中山市永兴路1号附近
美团专送,美团专送,22.674559,113.235579,广东省中山市拱桥路41号附近
美团专送,美团专送,22.531953,113.343619,广东省中山市青云路49号北60米
美团专送,美团专送,22.718456,113.32075,广东省中山市南头大道东69附近
美团专送,美团专送,22.508619,113.321563,奕豪路与隆都南路交叉口西北50米
美团专送,美团专送,22.619922,113.255402,中山市顷六路与联宜大街交叉路口往东南约50米(泰丰购物中心西侧约100米)
美团专送,美团专送,22.586225,113.226199,中山市珠三角环线高速(远洋启宸南侧约50米)
美团专送,美团专送,22.535862,113.389779,中山市莲塘路与莲员东路交叉路口往东约100米(中山市厚兴郑伟权学校西北侧)
美团专送,美团专送,22.274303,113.478753,广东省中山市嘉惠路三巷21号附近
美团专送,美团专送,22.619349,113.188735,广东省中山市永兴路1号附近
美团专送,美团专送,22.674559,113.235579,广东省中山市拱桥路41号附近
美团专送,美团专送,22.531953,113.343619,广东省中山市青云路49号北60米
美团专送,美团专送,22.718456,113.32075,广东省中山市南头大道东69附近
美团专送,美团专送,22.508619,113.321563,奕豪路与隆都南路交叉口西北50米
美团专送,美团专送,22.619922,113.255402,中山市顷六路与联宜大街交叉路口往东南约50米(泰丰购物中心西侧约100米)
美团专送,美团专送,22.586225,113.226199,中山市珠三角环线高速(远洋启宸南侧约50米)
美团专送,美团专送,22.535862,113.389779,中山市莲塘路与莲员东路交叉路口往东约100米(中山市厚兴郑伟权学校西北侧)
美团专送,美团专送,22.274303,113.478753,广东省中山市嘉惠路三巷21号附近
美团专送,美团专送,22.619349,113.188735,广东省中山市永兴路1号附近
美团专送,美团专送,22.674559,113.235579,广东省中山市拱桥路41号附近
美团专送,美团专送,22.531953,113.343619,广东省中山市青云路49号北60米
美团专送,美团专送,22.718456,113.32075,广东省中山市南头大道东69附近
美团专送,美团专送,22.508619,113.321563,奕豪路与隆都南路交叉口西北50米
美团专送,美团专送,22.619922,113.255402,中山市顷六路与联宜大街交叉路口往东南约50米(泰丰购物中心西侧约100米)
美团专送,美团专送,22.586225,113.226199,中山市珠三角环线高速(远洋启宸南侧约50米)
美团专送,美团专送,22.535862,113.389779,中山市莲塘路与莲员东路交叉路口往东约100米(中山市厚兴郑伟权学校西北侧)
美团专送,美团专送,22.274303,113.478753,广东省中山市嘉惠路三巷21号附近
美团专送,美团专送,22.619349,113.188735,广东省中山市永兴路1号附近
美团外卖(迎宾大道店),美团外卖(迎宾大道店),22.396632,113.335829,中山市迎宾大道(盈悦豪庭西南侧约150米)
美团专送,美团专送,22.674559,113.235579,广东省中山市拱桥路41号附近
美团专送,美团专送,22.531953,113.343619,广东省中山市青云路49号北60米
美团专送,美团专送,22.718456,113.32075,广东省中山市南头大道东69附近
美团专送,美团专送,22.508619,113.321563,奕豪路与隆都南路交叉口西北50米
美团专送,美团专送,22.619922,113.255402,中山市顷六路与联宜大街交叉路口往东南约50米(泰丰购物中心西侧约100米)
美团专送,美团专送,22.586225,113.226199,中山市珠三角环线高速(远洋启宸南侧约50米)
美团专送,美团专送,22.535862,113.389779,中山市莲塘路与莲员东路交叉路口往东约100米(中山市厚兴郑伟权学校西北侧)
美团专送,美团专送,22.274303,113.478753,广东省中山市嘉惠路三巷21号附近
美团专送,美团专送,22.619349,113.188735,广东省中山市永兴路1号附近
美团专送,美团专送,22.674559,113.235579,广东省中山市拱桥路41号附近
美团专送,美团专送,22.531953,113.343619,广东省中山市青云路49号北60米
美团专送,美团专送,22.718456,113.32075,广东省中山市南头大道东69附近
美团专送,美团专送,22.508619,113.321563,奕豪路与隆都南路交叉口西北50米
美团专送,美团专送,22.619922,113.255402,中山市顷六路与联宜大街交叉路口往东南约50米(泰丰购物中心西侧约100米)
美团专送,美团专送,22.586225,113.226199,中山市珠三角环线高速(远洋启宸南侧约50米)
美团专送,美团专送,22.535862,113.389779,中山市莲塘路与莲员东路交叉路口往东约100米(中山市厚兴郑伟权学校西北侧)
美团专送,美团专送,22.274303,113.478753,广东省中山市嘉惠路三巷21号附近
美团专送,美团专送,22.619349,113.188735,广东省中山市永兴路1号附近
美团专送,美团专送,22.674559,113.235579,广东省中山市拱桥路41号附近
美团专送,美团专送,22.531953,113.343619,广东省中山市青云路49号北60米
美团专送,美团专送,22.718456,113.32075,广东省中山市南头大道东69附近
美团专送,美团专送,22.508619,113.321563,奕豪路与隆都南路交叉口西北50米
美团专送,美团专送,22.619922,113.255402,中山市顷六路与联宜大街交叉路口往东南约50米(泰丰购物中心西侧约100米)
美团专送,美团专送,22.586225,113.226199,中山市珠三角环线高速(远洋启宸南侧约50米)
美团专送,美团专送,22.535862,113.389779,中山市莲塘路与莲员东路交叉路口往东约100米(中山市厚兴郑伟权学校西北侧)
美团专送,美团专送,22.274303,113.478753,广东省中山市嘉惠路三巷21号附近
美团专送,美团专送,22.619349,113.188735,广东省中山市永兴路1号附近
美团专送,美团专送,22.674559,113.235579,广东省中山市拱桥路41号附近
美团专送,美团专送,22.531953,113.343619,广东省中山市青云路49号北60米
美团专送,美团专送,22.718456,113.32075,广东省中山市南头大道东69附近
美团专送,美团专送,22.508619,113.321563,奕豪路与隆都南路交叉口西北50米
美团专送,美团专送,22.619922,113.255402,中山市顷六路与联宜大街交叉路口往东南约50米(泰丰购物中心西侧约100米)
美团专送,美团专送,22.586225,113.226199,中山市珠三角环线高速(远洋启宸南侧约50米)
美团专送,美团专送,22.535862,113.389779,中山市莲塘路与莲员东路交叉路口往东约100米(中山市厚兴郑伟权学校西北侧)
美团专送,美团专送,22.274303,113.478753,广东省中山市嘉惠路三巷21号附近
美团专送,美团专送,22.619349,113.188735,广东省中山市永兴路1号附近
叮咚美业,叮咚美业,22.58986,113.213787,中山市接龙街与胜裕南路交叉路口南侧(祥安综合市场东侧约100米)
美团专送,美团专送,22.575155,113.115522,广东省江门市江海区麻园路151-110号附近
美团专送,美团专送,22.51917,113.044903,振兴三路12号-3座附近
美团专送,美团专送,22.374912,112.714508,广东省江门市开平市虹桥路47号附近
美团专送,美团专送,22.382471,112.701688,广东省江门市开平市人民西路10号东南90米
美团专送,美团专送,22.603828,113.155603,江门市江海区阳山大路与清兰大路交叉路口往西北约100米(世纪新象商住城)
美团专送,美团专送,22.649372,113.141761,江门市蓬江区东胜里三巷与民兴四街交叉路口往南约150米(禾冈小学南侧约50米)
美团专送,美团专送,22.60779,113.026357,广东省江门市蓬江区S270(江杜中路)
美团专送,美团专送,22.603637,113.022292,广东省江门市蓬江区上巷六巷
淘宝美团产品摄影,淘宝美团产品摄影,21.239505,110.395764,乐山路1号
美团专送,美团专送,21.657661,110.916212,计星路一巷荣华花园65号
美团专送,美团专送,23.720587,113.050791,聚龙街嘉达百货
美团专送,美团专送,23.740714,113.001946,广东省清远市清新区G107(清和大道)
美团专送,美团专送,23.687338,113.069813,清远市清城区静福路与北江一路交叉路口往西南约150米(炒沙新村)
美团专送,美团专送,23.675887,113.058935,清远市清城区康乐路与半环北路交叉路口往南约200米(晟禾・汇江花园)
美团工作室,美团工作室,23.718839,113.043111,凤城街道大润发花厅市场花厅平价商店对面
美团专送,美团专送,23.539336,116.374077,揭阳市榕城区进贤门大道与港福路交叉路口往南约50米(绿茵豪苑)
美团专送,美团专送,23.576843,116.421571,揭阳市揭东区西一街与金凤路交叉路口往东北约200米(巨轮苑东南侧约100米)
美团专送,美团专送,23.561548,116.329521,万玉广场旁兴裕商寓往里进50米
美团专送,美团专送,23.562381,116.360419,揭阳市榕城区美阳路(揭阳市榕城区红十字会医院东侧约100米)
美团专送,美团专送,23.62239,116.299387,揭阳市揭东区烟汕线(王名盛纪念中学东侧约150米)
美团专送,美团专送,23.549281,116.372202,广东省揭阳市榕城区榕港路442号附近
美团专送,美团专送,23.519762,116.367502,广东省揭阳市榕城区榕华大道辅路(田东贤德农民小区门口)
盒马鲜生(四海城店),盒马鲜生(四海城店),23.013191,113.359218,南村镇汉溪大道东390号四海城商业广场LG1层
盒马鲜生(富基广场店),盒马鲜生(富基广场店),23.113183,113.276624,同福东路663号富基广场内
盒马鲜生保利中环店收货部,盒马鲜生保利中环店收货部,23.143321,113.288878,建设中马路与建设二马路交叉口东北50米
美团买菜(员岗站),美团买菜(员岗站),23.015008,113.371215,员岗大道东路10之二102号
美团买菜(白云东平店),美团买菜(白云东平店),23.253676,113.314503,致富路3号
美团站点,美团站点,23.178765,113.258107,广东省广州市白云区三元里街道三元里大道846号
美团站点,美团站点,23.103744,113.268749,广州市海珠区南田路与宝岗大道交叉路口往西南约100米(宝岗大厦东南侧)
美团站点,美团站点,23.132927,113.245261,周门街14号101
美团站点,美团站点,23.001265,113.351899,南村镇里仁洞朝阳新区十街3号
美团站点,美团站点,23.149718,113.284162,麓景路上塘街39之一101
美团站点,美团站点,22.953872,113.365567,丹桂园大街2巷12号时代大厦
朴朴超市,朴朴超市,22.538932,114.072941,福田街道福华三路恒运豪庭朴朴超市
朴朴超市,朴朴超市,22.57351,113.96458,桃源街道龙辉花园33栋
朴朴超市,朴朴超市,22.570196,114.181968,莲塘街道罗湖区国威路6号莲塘投资大厦
朴朴超市,朴朴超市,22.564313,114.108254,八卦二路3号八卦岭工业区4栋一层店面
朴朴超市,朴朴超市,22.553219,114.095157,振兴路120号赛格科技园104栋一楼
朴朴超市,朴朴超市,22.541269,114.094753,深圳市福田区华阳街与华发南路交叉路口往西约50米(鹏福楼)
朴朴超市,朴朴超市,22.567151,113.98085,龙井西区金谷创业园d栋朴朴超市
朴朴超市,朴朴超市,22.53703,114.038363,车公庙天安数码城天展大厦AB座
朴朴超市,朴朴超市,22.572476,114.07075,凯丰花园1期凯丰综合楼朴朴超市
朴朴超市,朴朴超市,22.538932,114.072941,福田街道福华三路恒运豪庭朴朴超市
朴朴超市,朴朴超市,22.57351,113.96458,桃源街道龙辉花园33栋
朴朴超市,朴朴超市,22.570196,114.181968,莲塘街道罗湖区国威路6号莲塘投资大厦
朴朴超市,朴朴超市,22.564313,114.108254,八卦二路3号八卦岭工业区4栋一层店面
朴朴超市,朴朴超市,22.553219,114.095157,振兴路120号赛格科技园104栋一楼
朴朴超市,朴朴超市,22.541269,114.094753,深圳市福田区华阳街与华发南路交叉路口往西约50米(鹏福楼)
朴朴超市,朴朴超市,22.567151,113.98085,龙井西区金谷创业园d栋朴朴超市
朴朴超市,朴朴超市,22.53703,114.038363,车公庙天安数码城天展大厦AB座
朴朴超市,朴朴超市,22.572476,114.07075,凯丰花园1期凯丰综合楼朴朴超市
朴朴超市,朴朴超市,22.538932,114.072941,福田街道福华三路恒运豪庭朴朴超市
朴朴超市,朴朴超市,22.57351,113.96458,桃源街道龙辉花园33栋
朴朴超市,朴朴超市,22.570196,114.181968,莲塘街道罗湖区国威路6号莲塘投资大厦
朴朴超市,朴朴超市,22.564313,114.108254,八卦二路3号八卦岭工业区4栋一层店面
朴朴超市,朴朴超市,22.553219,114.095157,振兴路120号赛格科技园104栋一楼
朴朴超市,朴朴超市,22.541269,114.094753,深圳市福田区华阳街与华发南路交叉路口往西约50米(鹏福楼)
朴朴超市,朴朴超市,22.567151,113.98085,龙井西区金谷创业园d栋朴朴超市
朴朴超市,朴朴超市,22.53703,114.038363,车公庙天安数码城天展大厦AB座
朴朴超市,朴朴超市,22.572476,114.07075,凯丰花园1期凯丰综合楼朴朴超市
朴朴超市,朴朴超市,22.538932,114.072941,福田街道福华三路恒运豪庭朴朴超市
朴朴超市,朴朴超市,22.57351,113.96458,桃源街道龙辉花园33栋
朴朴超市,朴朴超市,22.570196,114.181968,莲塘街道罗湖区国威路6号莲塘投资大厦
朴朴超市,朴朴超市,22.564313,114.108254,八卦二路3号八卦岭工业区4栋一层店面
朴朴超市,朴朴超市,22.553219,114.095157,振兴路120号赛格科技园104栋一楼
朴朴超市,朴朴超市,22.541269,114.094753,深圳市福田区华阳街与华发南路交叉路口往西约50米(鹏福楼)
朴朴超市,朴朴超市,22.567151,113.98085,龙井西区金谷创业园d栋朴朴超市
朴朴超市,朴朴超市,22.53703,114.038363,车公庙天安数码城天展大厦AB座
朴朴超市,朴朴超市,22.572476,114.07075,凯丰花园1期凯丰综合楼朴朴超市
朴朴超市,朴朴超市,22.538932,114.072941,福田街道福华三路恒运豪庭朴朴超市
朴朴超市,朴朴超市,22.57351,113.96458,桃源街道龙辉花园33栋
朴朴超市,朴朴超市,22.570196,114.181968,莲塘街道罗湖区国威路6号莲塘投资大厦
朴朴超市,朴朴超市,22.564313,114.108254,八卦二路3号八卦岭工业区4栋一层店面
朴朴超市,朴朴超市,22.553219,114.095157,振兴路120号赛格科技园104栋一楼
朴朴超市,朴朴超市,22.541269,114.094753,深圳市福田区华阳街与华发南路交叉路口往西约50米(鹏福楼)
朴朴超市,朴朴超市,22.567151,113.98085,龙井西区金谷创业园d栋朴朴超市
朴朴超市,朴朴超市,22.53703,114.038363,车公庙天安数码城天展大厦AB座
朴朴超市,朴朴超市,22.572476,114.07075,凯丰花园1期凯丰综合楼朴朴超市
朴朴超市,朴朴超市,22.528074,114.042563,沙嘴路53号红旗岭综合楼朴朴超市
朴朴超市,朴朴超市,22.538932,114.072941,福田街道福华三路恒运豪庭朴朴超市
朴朴超市,朴朴超市,22.57351,113.96458,桃源街道龙辉花园33栋
朴朴超市,朴朴超市,22.570196,114.181968,莲塘街道罗湖区国威路6号莲塘投资大厦
朴朴超市,朴朴超市,22.564313,114.108254,八卦二路3号八卦岭工业区4栋一层店面
朴朴超市,朴朴超市,22.553219,114.095157,振兴路120号赛格科技园104栋一楼
朴朴超市,朴朴超市,22.541269,114.094753,深圳市福田区华阳街与华发南路交叉路口往西约50米(鹏福楼)
朴朴超市,朴朴超市,22.567151,113.98085,龙井西区金谷创业园d栋朴朴超市
朴朴超市,朴朴超市,22.53703,114.038363,车公庙天安数码城天展大厦AB座
朴朴超市,朴朴超市,22.572476,114.07075,凯丰花园1期凯丰综合楼朴朴超市
朴朴超市,朴朴超市,22.538932,114.072941,福田街道福华三路恒运豪庭朴朴超市
朴朴超市,朴朴超市,22.57351,113.96458,桃源街道龙辉花园33栋
朴朴超市,朴朴超市,22.570196,114.181968,莲塘街道罗湖区国威路6号莲塘投资大厦
朴朴超市,朴朴超市,22.564313,114.108254,八卦二路3号八卦岭工业区4栋一层店面
朴朴超市,朴朴超市,22.553219,114.095157,振兴路120号赛格科技园104栋一楼
朴朴超市,朴朴超市,22.541269,114.094753,深圳市福田区华阳街与华发南路交叉路口往西约50米(鹏福楼)
朴朴超市,朴朴超市,22.567151,113.98085,龙井西区金谷创业园d栋朴朴超市
朴朴超市,朴朴超市,22.53703,114.038363,车公庙天安数码城天展大厦AB座
朴朴超市,朴朴超市,22.572476,114.07075,凯丰花园1期凯丰综合楼朴朴超市
美团买菜(安乐站),美团买菜(安乐站),22.560553,113.9068,翻身路65号
美团买菜,美团买菜,22.733668,114.269951,碧新路2153号
美团买菜,美团买菜,22.613947,114.150746,黄金南路9号南岭智谷
美团买菜,美团买菜,22.492096,113.940922,蛇口新街26号春树里
美团买菜,美团买菜,22.571968,114.176774,莲塘聚宝路175号非遗园四栋1楼
美团买菜,美团买菜,22.733668,114.269951,碧新路2153号
美团买菜,美团买菜,22.613947,114.150746,黄金南路9号南岭智谷
美团买菜,美团买菜,22.492096,113.940922,蛇口新街26号春树里
美团买菜,美团买菜,22.571968,114.176774,莲塘聚宝路175号非遗园四栋1楼
美团买菜,美团买菜,22.733668,114.269951,碧新路2153号
美团买菜,美团买菜,22.613947,114.150746,黄金南路9号南岭智谷
美团买菜,美团买菜,22.492096,113.940922,蛇口新街26号春树里
美团买菜,美团买菜,22.571968,114.176774,莲塘聚宝路175号非遗园四栋1楼
美团买菜,美团买菜,22.733668,114.269951,碧新路2153号
美团买菜,美团买菜,22.613947,114.150746,黄金南路9号南岭智谷
美团买菜,美团买菜,22.492096,113.940922,蛇口新街26号春树里
美团买菜,美团买菜,22.571968,114.176774,莲塘聚宝路175号非遗园四栋1楼
美团买菜,美团买菜,22.733668,114.269951,碧新路2153号
美团买菜,美团买菜,22.613947,114.150746,黄金南路9号南岭智谷
美团买菜,美团买菜,22.492096,113.940922,蛇口新街26号春树里
美团买菜,美团买菜,22.571968,114.176774,莲塘聚宝路175号非遗园四栋1楼
美团买菜,美团买菜,22.733668,114.269951,碧新路2153号
美团买菜,美团买菜,22.613947,114.150746,黄金南路9号南岭智谷
美团买菜,美团买菜,22.492096,113.940922,蛇口新街26号春树里
美团买菜,美团买菜,22.571968,114.176774,莲塘聚宝路175号非遗园四栋1楼
美团买菜,美团买菜,22.733668,114.269951,碧新路2153号
美团买菜,美团买菜,22.613947,114.150746,黄金南路9号南岭智谷
美团买菜,美团买菜,22.492096,113.940922,蛇口新街26号春树里
美团买菜,美团买菜,22.571968,114.176774,莲塘聚宝路175号非遗园四栋1楼
美团买菜,美团买菜,22.733668,114.269951,碧新路2153号
美团买菜,美团买菜,22.613947,114.150746,黄金南路9号南岭智谷
美团买菜,美团买菜,22.492096,113.940922,蛇口新街26号春树里
美团买菜,美团买菜,22.571968,114.176774,莲塘聚宝路175号非遗园四栋1楼
美团买菜,美团买菜,22.733668,114.269951,碧新路2153号
美团买菜,美团买菜,22.613947,114.150746,黄金南路9号南岭智谷
美团买菜,美团买菜,22.492096,113.940922,蛇口新街26号春树里
美团买菜,美团买菜,22.571968,114.176774,莲塘聚宝路175号非遗园四栋1楼
美团买菜,美团买菜,22.733668,114.269951,碧新路2153号
美团买菜,美团买菜,22.613947,114.150746,黄金南路9号南岭智谷
美团买菜,美团买菜,22.492096,113.940922,蛇口新街26号春树里
美团买菜,美团买菜,22.571968,114.176774,莲塘聚宝路175号非遗园四栋1楼
美团买菜,美团买菜,22.733668,114.269951,碧新路2153号
美团买菜,美团买菜,22.613947,114.150746,黄金南路9号南岭智谷
美团买菜,美团买菜,22.492096,113.940922,蛇口新街26号春树里
美团买菜,美团买菜,22.571968,114.176774,莲塘聚宝路175号非遗园四栋1楼
美团买菜,美团买菜,22.733668,114.269951,碧新路2153号
美团买菜,美团买菜,22.613947,114.150746,黄金南路9号南岭智谷
美团买菜,美团买菜,22.492096,113.940922,蛇口新街26号春树里
美团买菜,美团买菜,22.571968,114.176774,莲塘聚宝路175号非遗园四栋1楼
美团买菜,美团买菜,22.733668,114.269951,碧新路2153号
美团买菜,美团买菜,22.613947,114.150746,黄金南路9号南岭智谷
美团买菜,美团买菜,22.492096,113.940922,蛇口新街26号春树里
美团买菜,美团买菜,22.571968,114.176774,莲塘聚宝路175号非遗园四栋1楼
美团买菜,美团买菜,22.733668,114.269951,碧新路2153号
美团买菜,美团买菜,22.613947,114.150746,黄金南路9号南岭智谷
美团买菜,美团买菜,22.492096,113.940922,蛇口新街26号春树里
美团买菜,美团买菜,22.571968,114.176774,莲塘聚宝路175号非遗园四栋1楼
美团买菜,美团买菜,22.733668,114.269951,碧新路2153号
美团买菜,美团买菜,22.613947,114.150746,黄金南路9号南岭智谷
美团买菜,美团买菜,22.492096,113.940922,蛇口新街26号春树里
美团买菜,美团买菜,22.571968,114.176774,莲塘聚宝路175号非遗园四栋1楼
美团买菜,美团买菜,22.733668,114.269951,碧新路2153号
美团买菜,美团买菜,22.613947,114.150746,黄金南路9号南岭智谷
美团买菜,美团买菜,22.492096,113.940922,蛇口新街26号春树里
美团买菜,美团买菜,22.571968,114.176774,莲塘聚宝路175号非遗园四栋1楼
美团买菜,美团买菜,22.733668,114.269951,碧新路2153号
美团买菜,美团买菜,22.613947,114.150746,黄金南路9号南岭智谷
美团买菜,美团买菜,22.492096,113.940922,蛇口新街26号春树里
美团买菜,美团买菜,22.571968,114.176774,莲塘聚宝路175号非遗园四栋1楼
美团买菜,美团买菜,22.733668,114.269951,碧新路2153号
美团买菜,美团买菜,22.613947,114.150746,黄金南路9号南岭智谷
美团买菜,美团买菜,22.492096,113.940922,蛇口新街26号春树里
美团买菜,美团买菜,22.571968,114.176774,莲塘聚宝路175号非遗园四栋1楼
美团买菜,美团买菜,22.733668,114.269951,碧新路2153号
美团买菜,美团买菜,22.613947,114.150746,黄金南路9号南岭智谷
美团买菜,美团买菜,22.492096,113.940922,蛇口新街26号春树里
美团买菜,美团买菜,22.571968,114.176774,莲塘聚宝路175号非遗园四栋1楼
美团买菜,美团买菜,22.733668,114.269951,碧新路2153号
美团买菜,美团买菜,22.613947,114.150746,黄金南路9号南岭智谷
美团买菜,美团买菜,22.492096,113.940922,蛇口新街26号春树里
美团买菜,美团买菜,22.571968,114.176774,莲塘聚宝路175号非遗园四栋1楼
美团买菜,美团买菜,22.733668,114.269951,碧新路2153号
美团买菜,美团买菜,22.613947,114.150746,黄金南路9号南岭智谷
美团买菜,美团买菜,22.492096,113.940922,蛇口新街26号春树里
美团买菜,美团买菜,22.571968,114.176774,莲塘聚宝路175号非遗园四栋1楼
美团买菜,美团买菜,22.733668,114.269951,碧新路2153号
美团买菜,美团买菜,22.613947,114.150746,黄金南路9号南岭智谷
美团买菜,美团买菜,22.492096,113.940922,蛇口新街26号春树里
美团买菜,美团买菜,22.571968,114.176774,莲塘聚宝路175号非遗园四栋1楼
美团买菜,美团买菜,22.733668,114.269951,碧新路2153号
美团买菜,美团买菜,22.613947,114.150746,黄金南路9号南岭智谷
美团买菜,美团买菜,22.492096,113.940922,蛇口新街26号春树里
美团买菜,美团买菜,22.571968,114.176774,莲塘聚宝路175号非遗园四栋1楼
美团买菜,美团买菜,22.733668,114.269951,碧新路2153号
美团买菜,美团买菜,22.613947,114.150746,黄金南路9号南岭智谷
美团买菜,美团买菜,22.492096,113.940922,蛇口新街26号春树里
美团买菜,美团买菜,22.571968,114.176774,莲塘聚宝路175号非遗园四栋1楼
美团买菜,美团买菜,22.733668,114.269951,碧新路2153号
美团买菜,美团买菜,22.613947,114.150746,黄金南路9号南岭智谷
美团买菜,美团买菜,22.492096,113.940922,蛇口新街26号春树里
美团买菜,美团买菜,22.571968,114.176774,莲塘聚宝路175号非遗园四栋1楼
美团(深圳宝安仓),美团(深圳宝安仓),22.721719,113.817194,沙井街道南环路334号
叮咚买菜(八卦岭站),叮咚买菜(八卦岭站),22.566485,114.10255,八卦岭工业区543栋
叮咚买菜,叮咚买菜,22.737608,114.270581,龙平东路283号
叮咚买菜,叮咚买菜,22.693885,114.059314,观澜街道大和村进贤酒店后面200米处
叮咚买菜,叮咚买菜,22.649535,114.026472,恒益楼1层
叮咚买菜,叮咚买菜,22.577281,114.118001,泥岗东路269号大华商务中心
叮咚买菜,叮咚买菜,22.569278,113.873029,西乡街道广东深圳市宝安区西乡碧海中心区海城路与宝源路交汇处东南角坪洲小学旁广兴源圣拿威湾美花园9栋
叮咚买菜,叮咚买菜,22.739136,113.911463,光明区田湾路97号百思富创客
叮咚买菜,叮咚买菜,22.541453,114.131058,沿河南路1120号
叮咚买菜,叮咚买菜,22.593967,113.867267,深圳市宝安区共和工业路与银田工业路交叉路口北侧(银田创意园东北侧)
叮咚买菜,叮咚买菜,22.737608,114.270581,龙平东路283号
叮咚买菜,叮咚买菜,22.693885,114.059314,观澜街道大和村进贤酒店后面200米处
叮咚买菜,叮咚买菜,22.649535,114.026472,恒益楼1层
叮咚买菜,叮咚买菜,22.577281,114.118001,泥岗东路269号大华商务中心
叮咚买菜,叮咚买菜,22.569278,113.873029,西乡街道广东深圳市宝安区西乡碧海中心区海城路与宝源路交汇处东南角坪洲小学旁广兴源圣拿威湾美花园9栋
叮咚买菜,叮咚买菜,22.739136,113.911463,光明区田湾路97号百思富创客
叮咚买菜,叮咚买菜,22.541453,114.131058,沿河南路1120号
叮咚买菜,叮咚买菜,22.593967,113.867267,深圳市宝安区共和工业路与银田工业路交叉路口北侧(银田创意园东北侧)
叮咚买菜,叮咚买菜,22.737608,114.270581,龙平东路283号
叮咚买菜,叮咚买菜,22.693885,114.059314,观澜街道大和村进贤酒店后面200米处
叮咚买菜,叮咚买菜,22.649535,114.026472,恒益楼1层
叮咚买菜,叮咚买菜,22.577281,114.118001,泥岗东路269号大华商务中心
叮咚买菜,叮咚买菜,22.569278,113.873029,西乡街道广东深圳市宝安区西乡碧海中心区海城路与宝源路交汇处东南角坪洲小学旁广兴源圣拿威湾美花园9栋
叮咚买菜,叮咚买菜,22.739136,113.911463,光明区田湾路97号百思富创客
叮咚买菜,叮咚买菜,22.541453,114.131058,沿河南路1120号
叮咚买菜,叮咚买菜,22.593967,113.867267,深圳市宝安区共和工业路与银田工业路交叉路口北侧(银田创意园东北侧)
叮咚买菜,叮咚买菜,22.737608,114.270581,龙平东路283号
叮咚买菜,叮咚买菜,22.693885,114.059314,观澜街道大和村进贤酒店后面200米处
叮咚买菜,叮咚买菜,22.649535,114.026472,恒益楼1层
叮咚买菜,叮咚买菜,22.577281,114.118001,泥岗东路269号大华商务中心
叮咚买菜,叮咚买菜,22.569278,113.873029,西乡街道广东深圳市宝安区西乡碧海中心区海城路与宝源路交汇处东南角坪洲小学旁广兴源圣拿威湾美花园9栋
叮咚买菜,叮咚买菜,22.739136,113.911463,光明区田湾路97号百思富创客
叮咚买菜,叮咚买菜,22.541453,114.131058,沿河南路1120号
叮咚买菜,叮咚买菜,22.593967,113.867267,深圳市宝安区共和工业路与银田工业路交叉路口北侧(银田创意园东北侧)
叮咚买菜,叮咚买菜,22.737608,114.270581,龙平东路283号
叮咚买菜,叮咚买菜,22.693885,114.059314,观澜街道大和村进贤酒店后面200米处
叮咚买菜,叮咚买菜,22.649535,114.026472,恒益楼1层
叮咚买菜,叮咚买菜,22.577281,114.118001,泥岗东路269号大华商务中心
叮咚买菜,叮咚买菜,22.569278,113.873029,西乡街道广东深圳市宝安区西乡碧海中心区海城路与宝源路交汇处东南角坪洲小学旁广兴源圣拿威湾美花园9栋
叮咚买菜,叮咚买菜,22.739136,113.911463,光明区田湾路97号百思富创客
叮咚买菜,叮咚买菜,22.541453,114.131058,沿河南路1120号
叮咚买菜,叮咚买菜,22.593967,113.867267,深圳市宝安区共和工业路与银田工业路交叉路口北侧(银田创意园东北侧)
叮咚买菜,叮咚买菜,22.737608,114.270581,龙平东路283号
叮咚买菜,叮咚买菜,22.693885,114.059314,观澜街道大和村进贤酒店后面200米处
叮咚买菜,叮咚买菜,22.649535,114.026472,恒益楼1层
叮咚买菜,叮咚买菜,22.577281,114.118001,泥岗东路269号大华商务中心
叮咚买菜,叮咚买菜,22.569278,113.873029,西乡街道广东深圳市宝安区西乡碧海中心区海城路与宝源路交汇处东南角坪洲小学旁广兴源圣拿威湾美花园9栋
叮咚买菜,叮咚买菜,22.739136,113.911463,光明区田湾路97号百思富创客
叮咚买菜,叮咚买菜,22.541453,114.131058,沿河南路1120号
叮咚买菜,叮咚买菜,22.593967,113.867267,深圳市宝安区共和工业路与银田工业路交叉路口北侧(银田创意园东北侧)
叮咚买菜(水径店),叮咚买菜(水径店),22.626395,114.122394,布龙路18-1号2015-2016室
叮咚买菜,叮咚买菜,22.737608,114.270581,龙平东路283号
叮咚买菜,叮咚买菜,22.693885,114.059314,观澜街道大和村进贤酒店后面200米处
叮咚买菜,叮咚买菜,22.649535,114.026472,恒益楼1层
叮咚买菜,叮咚买菜,22.577281,114.118001,泥岗东路269号大华商务中心
叮咚买菜,叮咚买菜,22.569278,113.873029,西乡街道广东深圳市宝安区西乡碧海中心区海城路与宝源路交汇处东南角坪洲小学旁广兴源圣拿威湾美花园9栋
叮咚买菜,叮咚买菜,22.739136,113.911463,光明区田湾路97号百思富创客
叮咚买菜,叮咚买菜,22.541453,114.131058,沿河南路1120号
叮咚买菜,叮咚买菜,22.593967,113.867267,深圳市宝安区共和工业路与银田工业路交叉路口北侧(银田创意园东北侧)
叮咚买菜,叮咚买菜,22.737608,114.270581,龙平东路283号
叮咚买菜,叮咚买菜,22.693885,114.059314,观澜街道大和村进贤酒店后面200米处
叮咚买菜,叮咚买菜,22.649535,114.026472,恒益楼1层
叮咚买菜,叮咚买菜,22.577281,114.118001,泥岗东路269号大华商务中心
叮咚买菜,叮咚买菜,22.569278,113.873029,西乡街道广东深圳市宝安区西乡碧海中心区海城路与宝源路交汇处东南角坪洲小学旁广兴源圣拿威湾美花园9栋
叮咚买菜,叮咚买菜,22.739136,113.911463,光明区田湾路97号百思富创客
叮咚买菜,叮咚买菜,22.541453,114.131058,沿河南路1120号
叮咚买菜,叮咚买菜,22.593967,113.867267,深圳市宝安区共和工业路与银田工业路交叉路口北侧(银田创意园东北侧)
叮咚买菜,叮咚买菜,22.737608,114.270581,龙平东路283号
叮咚买菜,叮咚买菜,22.693885,114.059314,观澜街道大和村进贤酒店后面200米处
叮咚买菜,叮咚买菜,22.649535,114.026472,恒益楼1层
叮咚买菜,叮咚买菜,22.577281,114.118001,泥岗东路269号大华商务中心
叮咚买菜,叮咚买菜,22.569278,113.873029,西乡街道广东深圳市宝安区西乡碧海中心区海城路与宝源路交汇处东南角坪洲小学旁广兴源圣拿威湾美花园9栋
叮咚买菜,叮咚买菜,22.739136,113.911463,光明区田湾路97号百思富创客
叮咚买菜,叮咚买菜,22.541453,114.131058,沿河南路1120号
叮咚买菜,叮咚买菜,22.593967,113.867267,深圳市宝安区共和工业路与银田工业路交叉路口北侧(银田创意园东北侧)
叮咚买菜(香蜜湖店),叮咚买菜(香蜜湖店),22.548367,114.047213,香梅路香逸名园一楼(香梅地铁站南300米)
美团专送,美团专送,23.117376,113.193675,广东省佛山市南海区怡兴大道南20号
美团专送,美团专送,23.02757,113.146787,佛山市禅城区兆祥路92号
美团专送,美团专送,23.038262,113.109009,广东省佛山市禅城区人民西路15-5号附近
美团专送,美团专送,22.88313,113.210594,泰宁路1号
美团专送,美团专送,23.035243,113.160237,佛山市南海区南兴工业大道与桂澜中路交叉路口往西约50米(俊彦广场西南侧约50米)
美团专送,美团专送,22.935577,113.210705,北蛘(济虹路新基街18号)
美团专送,美团专送,22.813697,113.289072,漕渔新村东一街13号
美团专送,美团专送,23.010521,113.098361,广东省佛山市禅城区河南西街29~30号附近
美团专送,美团专送,23.117376,113.193675,广东省佛山市南海区怡兴大道南20号
美团专送,美团专送,23.02757,113.146787,佛山市禅城区兆祥路92号
美团专送,美团专送,23.038262,113.109009,广东省佛山市禅城区人民西路15-5号附近
美团专送,美团专送,22.88313,113.210594,泰宁路1号
美团专送,美团专送,23.035243,113.160237,佛山市南海区南兴工业大道与桂澜中路交叉路口往西约50米(俊彦广场西南侧约50米)
美团专送,美团专送,22.935577,113.210705,北蛘(济虹路新基街18号)
美团专送,美团专送,22.813697,113.289072,漕渔新村东一街13号
美团专送,美团专送,23.010521,113.098361,广东省佛山市禅城区河南西街29~30号附近
美团专送,美团专送,23.117376,113.193675,广东省佛山市南海区怡兴大道南20号
美团专送,美团专送,23.02757,113.146787,佛山市禅城区兆祥路92号
美团专送,美团专送,23.038262,113.109009,广东省佛山市禅城区人民西路15-5号附近
美团专送,美团专送,22.88313,113.210594,泰宁路1号
美团专送,美团专送,23.035243,113.160237,佛山市南海区南兴工业大道与桂澜中路交叉路口往西约50米(俊彦广场西南侧约50米)
美团专送,美团专送,22.935577,113.210705,北蛘(济虹路新基街18号)
美团专送,美团专送,22.813697,113.289072,漕渔新村东一街13号
美团专送,美团专送,23.010521,113.098361,广东省佛山市禅城区河南西街29~30号附近
美团站点,美团站点,23.018552,113.12301,祖庙街道垂虹村新虹三街9号
美团站点,美团站点,23.010559,113.09839,河宕河南西街29号之一宏陶陶瓷一楼
美团站点,美团站点,22.961691,113.092198,佛山市顺德区德兴街与荔南路交叉路口往西约100米(乐从镇黎时松柏大学西侧)
美团站点,美团站点,23.264027,113.025473,佛山市三水区乐平大道与盘乐路交叉路口往西约50米(乐平中学西南侧约50米)
美团站点,美团站点,23.178189,112.875741,西青大道8号新动力广场
铺美团站点,铺美团站点,23.133546,113.01516,狮山穆院红星北路水晶湾7栋150号
铺美团站点,铺美团站点,23.112491,112.931152,丹灶镇联沙大道东海广场5号楼112
美团站点,美团站点,23.018552,113.12301,祖庙街道垂虹村新虹三街9号
美团站点,美团站点,23.010559,113.09839,河宕河南西街29号之一宏陶陶瓷一楼
美团站点,美团站点,22.961691,113.092198,佛山市顺德区德兴街与荔南路交叉路口往西约100米(乐从镇黎时松柏大学西侧)
美团站点,美团站点,23.264027,113.025473,佛山市三水区乐平大道与盘乐路交叉路口往西约50米(乐平中学西南侧约50米)
美团站点,美团站点,23.178189,112.875741,西青大道8号新动力广场
美团站点,美团站点,23.018552,113.12301,祖庙街道垂虹村新虹三街9号
美团站点,美团站点,23.010559,113.09839,河宕河南西街29号之一宏陶陶瓷一楼
美团站点,美团站点,22.961691,113.092198,佛山市顺德区德兴街与荔南路交叉路口往西约100米(乐从镇黎时松柏大学西侧)
美团站点,美团站点,23.264027,113.025473,佛山市三水区乐平大道与盘乐路交叉路口往西约50米(乐平中学西南侧约50米)
美团站点,美团站点,23.178189,112.875741,西青大道8号新动力广场
美团站点,美团站点,23.018552,113.12301,祖庙街道垂虹村新虹三街9号
美团站点,美团站点,23.010559,113.09839,河宕河南西街29号之一宏陶陶瓷一楼
美团站点,美团站点,22.961691,113.092198,佛山市顺德区德兴街与荔南路交叉路口往西约100米(乐从镇黎时松柏大学西侧)
美团站点,美团站点,23.264027,113.025473,佛山市三水区乐平大道与盘乐路交叉路口往西约50米(乐平中学西南侧约50米)
美团站点,美团站点,23.178189,112.875741,西青大道8号新动力广场
美团专送,美团专送,23.117376,113.193675,广东省佛山市南海区怡兴大道南20号
美团专送,美团专送,23.02757,113.146787,佛山市禅城区兆祥路92号
美团专送,美团专送,23.038262,113.109009,广东省佛山市禅城区人民西路15-5号附近
美团专送,美团专送,22.88313,113.210594,泰宁路1号
美团专送,美团专送,23.035243,113.160237,佛山市南海区南兴工业大道与桂澜中路交叉路口往西约50米(俊彦广场西南侧约50米)
美团专送,美团专送,22.935577,113.210705,北蛘(济虹路新基街18号)
美团专送,美团专送,22.813697,113.289072,漕渔新村东一街13号
美团专送,美团专送,23.010521,113.098361,广东省佛山市禅城区河南西街29~30号附近
铺美团站点,铺美团站点,23.133546,113.01516,狮山穆院红星北路水晶湾7栋150号
铺美团站点,铺美团站点,23.112491,112.931152,丹灶镇联沙大道东海广场5号楼112
美团专送,美团专送,23.662781,116.613646,三利路与必胜路交叉口西南50米
美团专送,美团专送,23.664899,116.638,潮州市湘桥区吉春路与吉怡路交叉路口往西约50米(新丽楼东南侧约50米)
美团专送,美团专送,23.468582,116.680967,盐池路附近
美团专送,美团专送,23.662781,116.613646,三利路与必胜路交叉口西南50米
美团专送,美团专送,23.664899,116.638,潮州市湘桥区吉春路与吉怡路交叉路口往西约50米(新丽楼东南侧约50米)
美团专送,美团专送,23.468582,116.680967,盐池路附近
美团专送东凤站,美团专送东凤站,23.520214,116.697111,东梅路82号附近
盒马生鲜收货部,盒马生鲜收货部,22.673082,113.833805,龙翔南路东100米
美团站点,美团站点,22.278895,113.550144,香华路288号2栋2单元一楼
每日优鲜(昌盛路店),每日优鲜(昌盛路店),22.221561,113.560588,侨光路3号
美团外卖(中山北路店),美团外卖(中山北路店),23.477824,116.777713,北美园A5栋
美团专送,美团专送,23.285623,116.325933,汕头市潮南区中南路(美南公园西侧)
美团专送,美团专送,23.443515,116.759008,汕头市龙湖区汕汾路与外砂迎宾路交叉路口往东北约100米(蓬中华侨学校西北侧)
美团专送,美团专送,23.50314,116.805354,广东省汕头市澄海区大海门三片六路
美团专送,美团专送,23.414775,116.65958,蓬城南街16号
美团专送,美团专送,23.374264,116.709751,品牌一条街41-43号附近
每日优鲜(汕头金平万达广场店),每日优鲜(汕头金平万达广场店),23.387518,116.689312,潮汕路汕头万达广场内
美团专送,美团专送,24.798912,113.582045,御龙湾A8-116商铺三维雅筑对面
盒马生鲜广东收货点,盒马生鲜广东收货点,23.062313,113.539885,东江大道132号
每日优鲜(广州沙河店),每日优鲜(广州沙河店),23.162432,113.319975,江园街蝌蚪公寓1楼
每日优鲜(员村店),每日优鲜(员村店),23.126931,113.356056,潭村路16号108商铺
每日优鲜(永泰店),每日优鲜(永泰店),23.240616,113.31127,市集贤路百世商业广场d3栋每日优鲜
每日优鲜(丰乐店),每日优鲜(丰乐店),23.113758,113.447048,茅岗新村环村大街71号
美团站点,美团站点,23.178765,113.258107,广东省广州市白云区三元里街道三元里大道846号
美团站点,美团站点,23.103744,113.268749,广州市海珠区南田路与宝岗大道交叉路口往西南约100米(宝岗大厦东南侧)
美团站点,美团站点,23.132927,113.245261,周门街14号101
美团站点,美团站点,23.001265,113.351899,南村镇里仁洞朝阳新区十街3号
美团站点,美团站点,23.149718,113.284162,麓景路上塘街39之一101
美团站点,美团站点,22.953872,113.365567,丹桂园大街2巷12号时代大厦
每日优鲜(长江大厦店),每日优鲜(长江大厦店),22.6222,114.117821,吉华路254号长江大厦A103
每日优鲜(平湖店),每日优鲜(平湖店),22.698482,114.139618,平湖建设路11号荔枝园大厦旁
每日优鲜(智慧谷创新广场民治大道店),每日优鲜(智慧谷创新广场民治大道店),22.638349,114.043837,民治街道民治大道566号智慧谷创广场
每日优鲜(油松店),每日优鲜(油松店),22.648311,114.055122,东环一路旭日小区27栋一楼
每日优鲜(龙胜店),每日优鲜(龙胜店),22.654104,114.02165,龙胜综合服务大楼天之蓝后面1楼104号铺
每日优鲜(洪浪北店),每日优鲜(洪浪北店),22.582498,113.915417,新安街道28区新安三路一巷翠盛综合楼一楼
美团专送,美团专送,23.391211,113.228969,天贵路与金河湾文化街交叉口西南150米
美团专送,美团专送,23.301238,113.36895,广州市白云区顺和街与大丰埔路交叉路口往北约200米(财富商务楼东侧约50米)
美团专送,美团专送,23.144269,113.338488,广东省广州市天河区信成南街9号附近
美团专送,美团专送,23.091151,113.233396,广州市荔湾区东]北路与喜鹊路交叉路口西南侧(鸿图苑)
美团专送,美团专送,23.085478,113.525389,广州市黄埔区黄埔东路(夏园体育文化公园北侧)
美团专送,美团专送,23.220219,113.256912,广东省广州市白云区三横路35号附近
美团专送,美团专送,22.929438,113.376524,广东省广州市番禺区聚宝路57号铺附近
美团专送,美团专送,23.021057,113.3579,广州市番禺区兴南大道与万博四路交叉路口往北约100米(富洲中心西北侧约50米)
美团专送,美团专送,23.174,113.242628,广东省广州市白云区西槎路394号
美团网佛山站,美团网佛山站,23.032264,113.11829,祖庙路33号百花广场18层1802
